{"type": "FeatureCollection", "features": [ {"type": "Feature", "properties": {"norad_id": 31678, "name": "FENGYUN 1C DEB", "group": "fengyun-1c-debris", "lat": 45.80125853996382, "lon": 102.67667444015122, "alt_km": 628.8625497868952, "timestamp": "2025-12-27T21:25:02.798144+00:00", "meta": {"OBJECT_NAME": "FENGYUN 1C DEB", "OBJECT_ID": "1999-025CCL", "EPOCH": "2025-12-26T13:49:06.447648", "MEAN_MOTION": 14.53315325, "ECCENTRICITY": 0.025806, "INCLINATION": 98.7989, "RA_OF_ASC_NODE": 110.4587, "ARG_OF_PERICENTER": 345.8412, "MEAN_ANOMALY": 13.5641, "EPHEMERIS_TYPE": 0, "CLASSIFICATION_TYPE": "U", "NORAD_CAT_ID": 31678, "ELEMENT_SET_NO": 999, "REV_AT_EPOCH": 97040, "BSTAR": 0.00080343, "MEAN_MOTION_DOT": 5.132e-05, "MEAN_MOTION_DDOT": 0}, "tle": {"line1": "1 31678U 99025CCL 25360.57576907  .00005132  00000+0  80343-3 0  9993", "line2": "2 31678  98.7989 110.4587 0258060 345.8412  13.5641 14.53315325970403"}}, "geometry": {"type": "Point", "coordinates": [102.67667444015122, 45.80125853996382]}}, {"type": "Feature", "properties": {"norad_id": 31680, "name": "FENGYUN 1C DEB", "group": "fengyun-1c-debris", "lat": -79.45947707669771, "lon": -177.0425113359148, "alt_km": 455.05238080224444, "timestamp": "2025-12-27T21:25:02.798155+00:00", "meta": {"OBJECT_NAME": "FENGYUN 1C DEB", "OBJECT_ID": "1999-025CCN", "EPOCH": "2025-12-24T13:28:55.173216", "MEAN_MOTION": 15.24845989, "ECCENTRICITY": 0.00745036, "INCLINATION": 99.8372, "RA_OF_ASC_NODE": 109.7543, "ARG_OF_PERICENTER": 251.2866, "MEAN_ANOMALY": 108.0268, "EPHEMERIS_TYPE": 0, "CLASSIFICATION_TYPE": "U", "NORAD_CAT_ID": 31680, "ELEMENT_SET_NO": 999, "REV_AT_EPOCH": 352, "BSTAR": 0.0014478473, "MEAN_MOTION_DOT": 0.00038992, "MEAN_MOTION_DDOT": 0}, "tle": {"line1": "1 31680U 99025CCN 25358.56174969  .00038992  00000+0  14478-2 0  9999", "line2": "2 31680  99.8372 109.7543 0074503 251.2866 108.0268 15.24845989  3526"}}, "geometry": {"type": "Point", "coordinates": [-177.0425113359148, -79.45947707669771]}}, {"type": "Feature", "properties": {"norad_id": 31685, "name": "FENGYUN 1C DEB", "group": "fengyun-1c-debris", "lat": -56.480220723218864, "lon": 39.068026672231504, "alt_km": 873.5813208415939, "timestamp": "2025-12-27T21:25:02.798165+00:00", "meta": {"OBJECT_NAME": "FENGYUN 1C DEB", "OBJECT_ID": "1999-025CCT", "EPOCH": "2025-12-23T18:53:17.762496", "MEAN_MOTION": 14.09662143, "ECCENTRICITY": 0.00164005, "INCLINATION": 98.73, "RA_OF_ASC_NODE": 21.674, "ARG_OF_PERICENTER": 193.5583, "MEAN_ANOMALY": 166.5149, "EPHEMERIS_TYPE": 0, "CLASSIFICATION_TYPE": "U", "NORAD_CAT_ID": 31685, "ELEMENT_SET_NO": 999, "REV_AT_EPOCH": 95245, "BSTAR": 0.00013928838, "MEAN_MOTION_DOT": 2.02e-06, "MEAN_MOTION_DDOT": 0}, "tle": {"line1": "1 31685U 99025CCT 25357.78701114  .00000202  00000+0  13929-3 0  9999", "line2": "2 31685  98.7300  21.6740 0016400 193.5583 166.5149 14.09662143952450"}}, "geometry": {"type": "Point", "coordinates": [39.068026672231504, -56.480220723218864]}}, {"type": "Feature", "properties": {"norad_id": 31686, "name": "FENGYUN 1C DEB", "group": "fengyun-1c-debris", "lat": -55.58347122272964, "lon": -118.53539344235242, "alt_km": 852.0439812599789, "timestamp": "2025-12-27T21:25:02.798175+00:00", "meta": {"OBJECT_NAME": "FENGYUN 1C DEB", "OBJECT_ID": "1999-025CCU", "EPOCH": "2025-12-27T04:02:33.320544", "MEAN_MOTION": 14.72323491, "ECCENTRICITY": 0.02823635, "INCLINATION": 98.1498, "RA_OF_ASC_NODE": 72.811, "ARG_OF_PERICENTER": 43.6292, "MEAN_ANOMALY": 318.6867, "EPHEMERIS_TYPE": 0, "CLASSIFICATION_TYPE": "U", "NORAD_CAT_ID": 31686, "ELEMENT_SET_NO": 999, "REV_AT_EPOCH": 98031, "BSTAR": 0.00069056641, "MEAN_MOTION_DOT": 8.196e-05, "MEAN_MOTION_DDOT": 0}, "tle": {"line1": "1 31686U 99025CCU 25361.16844121  .00008196  00000+0  69057-3 0  9996", "line2": "2 31686  98.1498  72.8110 0282363  43.6292 318.6867 14.72323491980310"}}, "geometry": {"type": "Point", "coordinates": [-118.53539344235242, -55.58347122272964]}}, {"type": "Feature", "properties": {"norad_id": 31688, "name": "FENGYUN 1C DEB", "group": "fengyun-1c-debris", "lat": 26.992106478866017, "lon": 51.10738063038593, "alt_km": 867.6936918181063, "timestamp": "2025-12-27T21:25:02.798185+00:00", "meta": {"OBJECT_NAME": "FENGYUN 1C DEB", "OBJECT_ID": "1999-025CCW", "EPOCH": "2025-12-26T21:18:50.392800", "MEAN_MOTION": 14.02317282, "ECCENTRICITY": 0.0075523, "INCLINATION": 98.9617, "RA_OF_ASC_NODE": 54.73, "ARG_OF_PERICENTER": 102.658, "MEAN_ANOMALY": 258.3043, "EPHEMERIS_TYPE": 0, "CLASSIFICATION_TYPE": "U", "NORAD_CAT_ID": 31688, "ELEMENT_SET_NO": 999, "REV_AT_EPOCH": 95476, "BSTAR": 0.00014654, "MEAN_MOTION_DOT": 1.87e-06, "MEAN_MOTION_DDOT": 0}, "tle": {"line1": "1 31688U 99025CCW 25360.88808325  .00000187  00000+0  14654-3 0  9997", "line2": "2 31688  98.9617  54.7300 0075523 102.6580 258.3043 14.02317282954767"}}, "geometry": {"type": "Point", "coordinates": [51.10738063038593, 26.992106478866017]}}, {"type": "Feature", "properties": {"norad_id": 31691, "name": "FENGYUN 1C DEB", "group": "fengyun-1c-debris", "lat": 73.7053235885312, "lon": 56.20018903343205, "alt_km": 818.9241416218292, "timestamp": "2025-12-27T21:25:02.798196+00:00", "meta": {"OBJECT_NAME": "FENGYUN 1C DEB", "OBJECT_ID": "1999-025CCZ", "EPOCH": "2025-12-24T12:14:29.737824", "MEAN_MOTION": 14.26259631, "ECCENTRICITY": 0.00619367, "INCLINATION": 98.8802, "RA_OF_ASC_NODE": 85.1044, "ARG_OF_PERICENTER": 205.8688, "MEAN_ANOMALY": 153.9391, "EPHEMERIS_TYPE": 0, "CLASSIFICATION_TYPE": "U", "NORAD_CAT_ID": 31691, "ELEMENT_SET_NO": 999, "REV_AT_EPOCH": 64279, "BSTAR": 0.0023694537, "MEAN_MOTION_DOT": 5.757e-05, "MEAN_MOTION_DDOT": 0}, "tle": {"line1": "1 31691U 99025CCZ 25358.51006641  .00005757  00000+0  23695-2 0  9991", "line2": "2 31691  98.8802  85.1044 0061936 205.8688 153.9391 14.26259631642799"}}, "geometry": {"type": "Point", "coordinates": [56.20018903343205, 73.7053235885312]}}, {"type": "Feature", "properties": {"norad_id": 31692, "name": "FENGYUN 1C DEB", "group": "fengyun-1c-debris", "lat": -62.45984813571368, "lon": 16.95203997532499, "alt_km": 850.9426374032455, "timestamp": "2025-12-27T21:25:02.798213+00:00", "meta": {"OBJECT_NAME": "FENGYUN 1C DEB", "OBJECT_ID": "1999-025CDA", "EPOCH": "2025-12-27T06:28:52.115232", "MEAN_MOTION": 14.18514707, "ECCENTRICITY": 0.0088249, "INCLINATION": 99.1775, "RA_OF_ASC_NODE": 358.2478, "ARG_OF_PERICENTER": 40.6007, "MEAN_ANOMALY": 320.1704, "EPHEMERIS_TYPE": 0, "CLASSIFICATION_TYPE": "U", "NORAD_CAT_ID": 31692, "ELEMENT_SET_NO": 999, "REV_AT_EPOCH": 58415, "BSTAR": 0.0032358, "MEAN_MOTION_DOT": 6.914e-05, "MEAN_MOTION_DDOT": 0}, "tle": {"line1": "1 31692U 99025CDA 25361.27004763  .00006914  00000+0  32358-2 0  9994", "line2": "2 31692  99.1775 358.2478 0088249  40.6007 320.1704 14.18514707584154"}}, "geometry": {"type": "Point", "coordinates": [16.95203997532499, -62.45984813571368]}}, {"type": "Feature", "properties": {"norad_id": 31695, "name": "FENGYUN 1C DEB", "group": "fengyun-1c-debris", "lat": -27.4106450181816, "lon": -97.81845441944472, "alt_km": 544.2974300414626, "timestamp": "2025-12-27T21:25:02.798223+00:00", "meta": {"OBJECT_NAME": "FENGYUN 1C DEB", "OBJECT_ID": "1999-025CDD", "EPOCH": "2025-12-26T23:18:11.693088", "MEAN_MOTION": 14.74038728, "ECCENTRICITY": 0.0174821, "INCLINATION": 98.2631, "RA_OF_ASC_NODE": 85.5642, "ARG_OF_PERICENTER": 183.2512, "MEAN_ANOMALY": 176.7575, "EPHEMERIS_TYPE": 0, "CLASSIFICATION_TYPE": "U", "NORAD_CAT_ID": 31695, "ELEMENT_SET_NO": 999, "REV_AT_EPOCH": 66181, "BSTAR": 0.0019911, "MEAN_MOTION_DOT": 0.00016724, "MEAN_MOTION_DDOT": 0}, "tle": {"line1": "1 31695U 99025CDD 25360.97096867  .00016724  00000+0  19911-2 0  9999", "line2": "2 31695  98.2631  85.5642 0174821 183.2512 176.7575 14.74038728661814"}}, "geometry": {"type": "Point", "coordinates": [-97.81845441944472, -27.4106450181816]}}, {"type": "Feature", "properties": {"norad_id": 31714, "name": "FENGYUN 1C DEB", "group": "fengyun-1c-debris", "lat": 30.595965941285666, "lon": -101.21127300086214, "alt_km": 605.3919344067808, "timestamp": "2025-12-27T21:25:02.798234+00:00", "meta": {"OBJECT_NAME": "FENGYUN 1C DEB", "OBJECT_ID": "1999-025CDM", "EPOCH": "2025-12-26T16:23:48.719328", "MEAN_MOTION": 14.89553341, "ECCENTRICITY": 0.00151114, "INCLINATION": 99.0318, "RA_OF_ASC_NODE": 262.8064, "ARG_OF_PERICENTER": 254.4064, "MEAN_ANOMALY": 135.9949, "EPHEMERIS_TYPE": 0, "CLASSIFICATION_TYPE": "U", "NORAD_CAT_ID": 31714, "ELEMENT_SET_NO": 999, "REV_AT_EPOCH": 96257, "BSTAR": 0.0061905901, "MEAN_MOTION_DOT": 0.00059586, "MEAN_MOTION_DDOT": 0}, "tle": {"line1": "1 31714U 99025CDM 25360.68320277  .00059586  00000+0  61906-2 0  9998", "line2": "2 31714  99.0318 262.8064 0015111 254.4064 135.9949 14.89553341962572"}}, "geometry": {"type": "Point", "coordinates": [-101.21127300086214, 30.595965941285666]}}, {"type": "Feature", "properties": {"norad_id": 31715, "name": "FENGYUN 1C DEB", "group": "fengyun-1c-debris", "lat": -72.70576482895522, "lon": -19.398109940234548, "alt_km": 858.2086244907823, "timestamp": "2025-12-27T21:25:02.798244+00:00", "meta": {"OBJECT_NAME": "FENGYUN 1C DEB", "OBJECT_ID": "1999-025CDN", "EPOCH": "2025-12-26T19:27:06.486336", "MEAN_MOTION": 14.52269154, "ECCENTRICITY": 0.01870348, "INCLINATION": 99.293, "RA_OF_ASC_NODE": 191.1328, "ARG_OF_PERICENTER": 77.581, "MEAN_ANOMALY": 284.6243, "EPHEMERIS_TYPE": 0, "CLASSIFICATION_TYPE": "U", "NORAD_CAT_ID": 31715, "ELEMENT_SET_NO": 999, "REV_AT_EPOCH": 61921, "BSTAR": 0.00070596181, "MEAN_MOTION_DOT": 3.546e-05, "MEAN_MOTION_DDOT": 0}, "tle": {"line1": "1 31715U 99025CDN 25360.81049174  .00003546  00000+0  70596-3 0  9999", "line2": "2 31715  99.2930 191.1328 0187034  77.5810 284.6243 14.52269154619214"}}, "geometry": {"type": "Point", "coordinates": [-19.398109940234548, -72.70576482895522]}}]}